{
  "type": "FeatureCollection",
  "features": [
    {
      "type": "Feature",
      "properties": {
        "norad_id": 66907,
        "name": "1998-067XT",
        "group": "stations",
        "lat": -35.049938659082606,
        "lon": 23.834487687284845,
        "alt_km": 416.0882302058526,
        "timestamp": "2025-12-07T03:52:31.222649+00:00",
        "meta_object_name": "1998-067XT",
        "meta_object_id": "1998-067XT",
        "meta_epoch": "2025-12-06T14:31:31.325088",
        "meta_mean_motion": 15.5045482,
        "meta_eccentricity": 0.00051917,
        "meta_inclination": 51.6295,
        "meta_ra_of_asc_node": 172.8271,
        "meta_arg_of_pericenter": 193.5378,
        "meta_mean_anomaly": 166.5473,
        "meta_ephemeris_type": 0,
        "meta_classification_type": "U",
        "meta_norad_cat_id": 66907,
        "meta_element_set_no": 999,
        "meta_rev_at_epoch": 66,
        "meta_bstar": 0.0014185455,
        "meta_mean_motion_dot": 0.00082713,
        "meta_mean_motion_ddot": 0,
        "tle_line1": "1 66907U 98067XT  25340.60522367  .00082713  00000+0  14185-2 0  9994",
        "tle_line2": "2 66907  51.6295 172.8271 0005191 193.5378 166.5473 15.50454820   666"
      },
      "geometry": {
        "type": "Point",
        "coordinates": [
          23.834487687284845,
          -35.049938659082606
        ]
      }
    },
    {
      "type": "Feature",
      "properties": {
        "norad_id": 66908,
        "name": "1998-067XU",
        "group": "stations",
        "lat": -35.584347808767376,
        "lon": 24.60078697776234,
        "alt_km": 415.8484416129413,
        "timestamp": "2025-12-07T03:52:31.222659+00:00",
        "meta_object_name": "1998-067XU",
        "meta_object_id": "1998-067XU",
        "meta_epoch": "2025-12-06T09:52:54.497568",
        "meta_mean_motion": 15.50486403,
        "meta_eccentricity": 0.0005415,
        "meta_inclination": 51.6293,
        "meta_ra_of_asc_node": 173.7848,
        "meta_arg_of_pericenter": 192.211,
        "meta_mean_anomaly": 167.8749,
        "meta_ephemeris_type": 0,
        "meta_classification_type": "U",
        "meta_norad_cat_id": 66908,
        "meta_element_set_no": 999,
        "meta_rev_at_epoch": 63,
        "meta_bstar": 0.0014263123,
        "meta_mean_motion_dot": 0.00083271,
        "meta_mean_motion_ddot": 0,
        "tle_line1": "1 66908U 98067XU  25340.41174187  .00083271  00000+0  14263-2 0  9994",
        "tle_line2": "2 66908  51.6293 173.7848 0005415 192.2110 167.8749 15.50486403   633"
      },
      "geometry": {
        "type": "Point",
        "coordinates": [
          24.60078697776234,
          -35.584347808767376
        ]
      }
    },
    {
      "type": "Feature",
      "properties": {
        "norad_id": 66909,
        "name": "1998-067XV",
        "group": "stations",
        "lat": -35.716527208500665,
        "lon": 24.793166005974534,
        "alt_km": 415.8111361514293,
        "timestamp": "2025-12-07T03:52:31.222669+00:00",
        "meta_object_name": "1998-067XV",
        "meta_object_id": "1998-067XV",
        "meta_epoch": "2025-12-06T14:31:18.459264",
        "meta_mean_motion": 15.50547779,
        "meta_eccentricity": 0.00052426,
        "meta_inclination": 51.6296,
        "meta_ra_of_asc_node": 172.8258,
        "meta_arg_of_pericenter": 193.8867,
        "meta_mean_anomaly": 166.1979,
        "meta_ephemeris_type": 0,
        "meta_classification_type": "U",
        "meta_norad_cat_id": 66909,
        "meta_element_set_no": 999,
        "meta_rev_at_epoch": 66,
        "meta_bstar": 0.0015899979,
        "meta_mean_motion_dot": 0.00093198,
        "meta_mean_motion_ddot": 0,
        "tle_line1": "1 66909U 98067XV  25340.60507476  .00093198  00000+0  15900-2 0  9995",
        "tle_line2": "2 66909  51.6296 172.8258 0005242 193.8867 166.1979 15.50547779   660"
      },
      "geometry": {
        "type": "Point",
        "coordinates": [
          24.793166005974534,
          -35.716527208500665
        ]
      }
    },
    {
      "type": "Feature",
      "properties": {
        "norad_id": 66910,
        "name": "1998-067XW",
        "group": "stations",
        "lat": -38.660092021305,
        "lon": 29.39086447012255,
        "alt_km": 415.6819216078429,
        "timestamp": "2025-12-07T03:52:31.222679+00:00",
        "meta_object_name": "1998-067XW",
        "meta_object_id": "1998-067XW",
        "meta_epoch": "2025-12-06T14:30:13.476960",
        "meta_mean_motion": 15.50789302,
        "meta_eccentricity": 0.00061597,
        "meta_inclination": 51.6294,
        "meta_ra_of_asc_node": 172.8206,
        "meta_arg_of_pericenter": 179.5377,
        "meta_mean_anomaly": 180.5619,
        "meta_ephemeris_type": 0,
        "meta_classification_type": "U",
        "meta_norad_cat_id": 66910,
        "meta_element_set_no": 999,
        "meta_rev_at_epoch": 66,
        "meta_bstar": 0.0013604594,
        "meta_mean_motion_dot": 0.0008025,
        "meta_mean_motion_ddot": 0,
        "tle_line1": "1 66910U 98067XW  25340.60432265  .00080250  00000+0  13605-2 0  9995",
        "tle_line2": "2 66910  51.6294 172.8206 0006159 179.5377 180.5619 15.50789302   669"
      },
      "geometry": {
        "type": "Point",
        "coordinates": [
          29.39086447012255,
          -38.660092021305
        ]
      }
    },
    {
      "type": "Feature",
      "properties": {
        "norad_id": 66911,
        "name": "1998-067XX",
        "group": "stations",
        "lat": -39.05211806182598,
        "lon": 30.055484675062043,
        "alt_km": 415.47758737387176,
        "timestamp": "2025-12-07T03:52:31.222689+00:00",
        "meta_object_name": "1998-067XX",
        "meta_object_id": "1998-067XX",
        "meta_epoch": "2025-12-06T14:30:06.081984",
        "meta_mean_motion": 15.50869311,
        "meta_eccentricity": 0.00060509,
        "meta_inclination": 51.6293,
        "meta_ra_of_asc_node": 172.8204,
        "meta_arg_of_pericenter": 180.1037,
        "meta_mean_anomaly": 179.9952,
        "meta_ephemeris_type": 0,
        "meta_classification_type": "U",
        "meta_norad_cat_id": 66911,
        "meta_element_set_no": 999,
        "meta_rev_at_epoch": 65,
        "meta_bstar": 0.0015610395,
        "meta_mean_motion_dot": 0.00092556,
        "meta_mean_motion_ddot": 0,
        "tle_line1": "1 66911U 98067XX  25340.60423706  .00092556  00000+0  15610-2 0  9996",
        "tle_line2": "2 66911  51.6293 172.8204 0006050 180.1037 179.9952 15.50869311   658"
      },
      "geometry": {
        "type": "Point",
        "coordinates": [
          30.055484675062043,
          -39.05211806182598
        ]
      }
    },
    {
      "type": "Feature",
      "properties": {
        "norad_id": 66912,
        "name": "1998-067XY",
        "group": "stations",
        "lat": -34.343140962809095,
        "lon": 22.845126976059742,
        "alt_km": 416.39024251392857,
        "timestamp": "2025-12-07T03:52:31.222698+00:00",
        "meta_object_name": "1998-067XY",
        "meta_object_id": "1998-067XY",
        "meta_epoch": "2025-12-06T14:31:44.195232",
        "meta_mean_motion": 15.50339462,
        "meta_eccentricity": 0.00052344,
        "meta_inclination": 51.6295,
        "meta_ra_of_asc_node": 172.8274,
        "meta_arg_of_pericenter": 193.0919,
        "meta_mean_anomaly": 166.9935,
        "meta_ephemeris_type": 0,
        "meta_classification_type": "U",
        "meta_norad_cat_id": 66912,
        "meta_element_set_no": 999,
        "meta_rev_at_epoch": 65,
        "meta_bstar": 0.0011669061,
        "meta_mean_motion_dot": 0.00067549,
        "meta_mean_motion_ddot": 0,
        "tle_line1": "1 66912U 98067XY  25340.60537263  .00067549  00000+0  11669-2 0  9995",
        "tle_line2": "2 66912  51.6295 172.8274 0005234 193.0919 166.9935 15.50339462   659"
      },
      "geometry": {
        "type": "Point",
        "coordinates": [
          22.845126976059742,
          -34.343140962809095
        ]
      }
    }
  ]
}